STARLINK-2022           
1 47643U 21012Z   24217.49194508  .00012655  00000+0  86651-3 0  9993
2 47643  53.0541 145.2045 0001513 103.5018 256.6140 15.06419054191991
